GLOBALSTAR M068         
1 32266U 07048D   25244.52026206 -.00000081  00000+0  12625-3 0  9996
2 32266  51.9882  69.5661 0000718 359.8260  18.5559 12.62827556827202
GLOBALSTAR M079         
1 37188U 10054A   25244.34131572 -.00000087  00000+0  95421-4 0  9990
2 37188  52.0025 267.9638 0000563 101.5763 271.3969 12.62266375686075
GLOBALSTAR M074         
1 37189U 10054B   25244.38800575 -.00000079  00000+0  13935-3 0  9991
2 37189  52.0003 267.1338 0000337 127.2212 336.8072 12.62271166686687
GLOBALSTAR M076         
1 37190U 10054C   25244.25055867 -.00000082  00000+0  11947-3 0  9990
2 37190  52.0015 267.7295 0000569 123.2422 316.1059 12.62265069686384
GLOBALSTAR M077         
1 37191U 10054D   25244.24154067 -.00000085  00000+0  10542-3 0  9995
2 37191  52.0050 224.6212 0000286  74.8349  31.4418 12.62323132686753
GLOBALSTAR M075         
1 37192U 10054E   25244.50685153 -.00000074  00000+0  16364-3 0  9996
2 37192  51.9959 309.1640 0000501 111.4755 353.6549 12.62267244685487
GLOBALSTAR M073         
1 37193U 10054F   25244.44162035 -.00000077  00000+0  14921-3 0  9999
2 37193  52.0040 223.2365 0000446  86.9386  81.6240 12.62262391687469
GLOBALSTAR M083         
1 37739U 11033A   25244.53460459 -.00000082  00000+0  11958-3 0  9997
2 37739  51.9851 171.5806 0000650  60.7634 109.9082 12.62275286656495
GLOBALSTAR M088         
1 37740U 11033B   25244.47243140 -.00000093  00000+0  59766-4 0  9990
2 37740  52.0212  77.4963 0000757  72.0163 296.1433 12.62267689652032
GLOBALSTAR M091         
1 37741U 11033C   25244.57925242 -.00000101  00000+0  14949-4 0  9996
2 37741  52.0012  40.5601 0000921  76.3743 358.7160 12.62269887652837
GLOBALSTAR M085         
1 37742U 11033D   25244.55251947 -.00000084  00000+0  10829-3 0  9991
2 37742  52.0158 351.6847 0000792  86.9483 286.3164 12.62264215653348
GLOBALSTAR M081         
1 37743U 11033E   25244.59976874 -.00000095  00000+0  47087-4 0  9998
2 37743  51.9990 354.3067 0000857 102.0303   4.9730 12.62267743653496
GLOBALSTAR M089         
1 37744U 11033F   25244.56859759 -.00000087  00000+0  95430-4 0  9994
2 37744  51.9943 308.6168 0000519 142.2561   3.9366 12.62266035654337
GLOBALSTAR M084         
1 38040U 11080A   25244.58725252 -.00000081  00000+0  12537-3 0  9998
2 38040  52.0002 175.8848 0000318 101.2881  69.2350 12.62268538632313
GLOBALSTAR M080         
1 38041U 11080B   25244.24082846 -.00000091  00000+0  71268-4 0  9995
2 38041  52.0052 178.5583 0000710  19.0000 145.8036 12.62268659632394
GLOBALSTAR M082         
1 38042U 11080C   25244.41585770 -.00000093  00000+0  58936-4 0  9998
2 38042  52.0069 133.4951 0000906  40.3856 131.0592 12.62268167633125
GLOBALSTAR M092         
1 38043U 11080D   25244.38797625 -.00000087  00000+0  94834-4 0  9999
2 38043  52.0062 223.9607 0000262  70.9043  93.0846 12.62265588631574
GLOBALSTAR M090         
1 38044U 11080E   25244.44214510 -.00000097  00000+0  38194-4 0  9992
2 38044  52.0115 127.2768 0000851  64.9488 106.0562 12.62262008633248
GLOBALSTAR M086         
1 38045U 11080F   25244.38877748 -.00000102  00000+0  81139-5 0  9999
2 38045  51.9890 127.8385 0001489 109.0795  62.8508 12.62276517633180
GLOBALSTAR M097         
1 39072U 13005A   25244.45722833 -.00000100  00000+0  21324-4 0  9998
2 39072  52.0058  42.2552 0000944  88.8436 271.2539 12.62265784580440
GLOBALSTAR M093         
1 39073U 13005B   25244.58952962 -.00000097  00000+0  35723-4 0  9994
2 39073  52.0120  35.0889 0001171  85.5545 274.5456 12.62263994580414
GLOBALSTAR M094         
1 39074U 13005C   25244.43102931 -.00000076  00000+0  15383-3 0  9998
2 39074  51.9971 309.9803 0000717  97.6425 262.4523 12.62269428582008
GLOBALSTAR M096         
1 39075U 13005D   25244.60250935 -.00000093  00000+0  62812-4 0  9995
2 39075  52.0106 358.0293 0000887  89.3677 270.7292 12.62266273580945
GLOBALSTAR M078         
1 39076U 13005E   25244.25961879 -.00000102  00000+0  76497-5 0  9999
2 39076  51.9865  83.4804 0001126  29.1374 330.9555 12.62259968579522
GLOBALSTAR M095         
1 39077U 13005F   25244.52314376 -.00000098  00000+0  31174-4 0  9990
2 39077  52.0075  79.8710 0001203  59.5289 300.5697 12.62259773579413
GLOBALSTAR M087         
1 52888U 22064A   25244.22080624 -.00000084  00000+0  10803-3 0  9993
2 52888  51.9974 222.2036 0000487  52.3462 307.7449 12.62301096154640
